{"type": "FeatureCollection", "features": [ {"type": "Feature", "properties": {"norad_id": 66707, "name": "FLOCK 4H-4", "group": "last-30-days", "lat": -47.778330780745556, "lon": 77.33964662689937, "alt_km": 519.9770708066462, "timestamp": "2025-12-23T11:34:46.946018+00:00", "meta": {"OBJECT_NAME": "FLOCK 4H-4", "OBJECT_ID": "2025-276AT", "EPOCH": "2025-12-23T03:52:40.924128", "MEAN_MOTION": 15.17212531, "ECCENTRICITY": 0.0003622, "INCLINATION": 97.4428, "RA_OF_ASC_NODE": 68.7414, "ARG_OF_PERICENTER": 250.2763, "MEAN_ANOMALY": 109.808, "EPHEMERIS_TYPE": 0, "CLASSIFICATION_TYPE": "U", "NORAD_CAT_ID": 66707, "ELEMENT_SET_NO": 999, "REV_AT_EPOCH": 370, "BSTAR": 0.00054249, "MEAN_MOTION_DOT": 0.00010727, "MEAN_MOTION_DDOT": 0}, "tle": {"line1": "1 66707U 25276AT  25357.16158477  .00010727  00000+0  54249-3 0  9992", "line2": "2 66707  97.4428  68.7414 0003622 250.2763 109.8080 15.17212531  3704"}}, "geometry": {"type": "Point", "coordinates": [77.33964662689937, -47.778330780745556]}}, {"type": "Feature", "properties": {"norad_id": 66708, "name": "FLOCK 4H-5", "group": "last-30-days", "lat": 35.87812911218835, "lon": 63.655600091905896, "alt_km": 508.93650548498863, "timestamp": "2025-12-23T11:34:46.946029+00:00", "meta": {"OBJECT_NAME": "FLOCK 4H-5", "OBJECT_ID": "2025-276AU", "EPOCH": "2025-12-23T00:20:51.483264", "MEAN_MOTION": 15.18167554, "ECCENTRICITY": 0.0001184, "INCLINATION": 97.4386, "RA_OF_ASC_NODE": 68.6181, "ARG_OF_PERICENTER": 126.6648, "MEAN_ANOMALY": 233.4694, "EPHEMERIS_TYPE": 0, "CLASSIFICATION_TYPE": "U", "NORAD_CAT_ID": 66708, "ELEMENT_SET_NO": 999, "REV_AT_EPOCH": 368, "BSTAR": 0.00054425, "MEAN_MOTION_DOT": 0.0001106, "MEAN_MOTION_DDOT": 0}, "tle": {"line1": "1 66708U 25276AU  25357.01448476  .00011060  00000+0  54425-3 0  9995", "line2": "2 66708  97.4386  68.6181 0001184 126.6648 233.4694 15.18167554  3684"}}, "geometry": {"type": "Point", "coordinates": [63.655600091905896, 35.87812911218835]}}, {"type": "Feature", "properties": {"norad_id": 66709, "name": "FLOCK 4H-6", "group": "last-30-days", "lat": 15.564568515251397, "lon": 67.00122989926584, "alt_km": 514.7217921380179, "timestamp": "2025-12-23T11:34:46.946038+00:00", "meta": {"OBJECT_NAME": "FLOCK 4H-6", "OBJECT_ID": "2025-276AV", "EPOCH": "2025-12-23T02:01:04.768608", "MEAN_MOTION": 15.1791569, "ECCENTRICITY": 0.0002584, "INCLINATION": 97.4431, "RA_OF_ASC_NODE": 68.6963, "ARG_OF_PERICENTER": 206.7472, "MEAN_ANOMALY": 153.3629, "EPHEMERIS_TYPE": 0, "CLASSIFICATION_TYPE": "U", "NORAD_CAT_ID": 66709, "ELEMENT_SET_NO": 999, "REV_AT_EPOCH": 369, "BSTAR": 0.00052491, "MEAN_MOTION_DOT": 0.00010588, "MEAN_MOTION_DDOT": 0}, "tle": {"line1": "1 66709U 25276AV  25357.08408297  .00010588  00000+0  52491-3 0  9995", "line2": "2 66709  97.4431  68.6963 0002584 206.7472 153.3629 15.17915690  3694"}}, "geometry": {"type": "Point", "coordinates": [67.00122989926584, 15.564568515251397]}}, {"type": "Feature", "properties": {"norad_id": 66710, "name": "FLOCK 4H-7", "group": "last-30-days", "lat": -25.253309369582276, "lon": 72.58331623485815, "alt_km": 518.6234570115794, "timestamp": "2025-12-23T11:34:46.946046+00:00", "meta": {"OBJECT_NAME": "FLOCK 4H-7", "OBJECT_ID": "2025-276AW", "EPOCH": "2025-12-23T03:46:44.073120", "MEAN_MOTION": 15.17486626, "ECCENTRICITY": 0.0001052, "INCLINATION": 97.4389, "RA_OF_ASC_NODE": 68.7306, "ARG_OF_PERICENTER": 289.3995, "MEAN_ANOMALY": 70.7125, "EPHEMERIS_TYPE": 0, "CLASSIFICATION_TYPE": "U", "NORAD_CAT_ID": 66710, "ELEMENT_SET_NO": 999, "REV_AT_EPOCH": 370, "BSTAR": 0.00033687, "MEAN_MOTION_DOT": 6.684e-05, "MEAN_MOTION_DDOT": 0}, "tle": {"line1": "1 66710U 25276AW  25357.15745455  .00006684  00000+0  33687-3 0  9993", "line2": "2 66710  97.4389  68.7306 0001052 289.3995  70.7125 15.17486626  3703"}}, "geometry": {"type": "Point", "coordinates": [72.58331623485815, -25.253309369582276]}}, {"type": "Feature", "properties": {"norad_id": 66711, "name": "FLOCK 4H-8", "group": "last-30-days", "lat": -26.497956935878793, "lon": 72.80769977093826, "alt_km": 518.5292647018459, "timestamp": "2025-12-23T11:34:46.946055+00:00", "meta": {"OBJECT_NAME": "FLOCK 4H-8", "OBJECT_ID": "2025-276AX", "EPOCH": "2025-12-23T04:00:01.998720", "MEAN_MOTION": 15.1746449, "ECCENTRICITY": 0.0002356, "INCLINATION": 97.443, "RA_OF_ASC_NODE": 68.7605, "ARG_OF_PERICENTER": 268.7008, "MEAN_ANOMALY": 140.5654, "EPHEMERIS_TYPE": 0, "CLASSIFICATION_TYPE": "U", "NORAD_CAT_ID": 66711, "ELEMENT_SET_NO": 999, "REV_AT_EPOCH": 171, "BSTAR": 0.0025105, "MEAN_MOTION_DOT": 0.00050511, "MEAN_MOTION_DDOT": 0}, "tle": {"line1": "1 66711U 25276AX  25357.16668980  .00050511  00000+0  25105-2 0  9995", "line2": "2 66711  97.4430  68.7605 0002356 268.7008 140.5654 15.17464490  1714"}}, "geometry": {"type": "Point", "coordinates": [72.80769977093826, -26.497956935878793]}}, {"type": "Feature", "properties": {"norad_id": 66712, "name": "FLOCK 4H-9", "group": "last-30-days", "lat": 14.527821354207157, "lon": 67.14443842735116, "alt_km": 514.8645400078958, "timestamp": "2025-12-23T11:34:46.946066+00:00", "meta": {"OBJECT_NAME": "FLOCK 4H-9", "OBJECT_ID": "2025-276AY", "EPOCH": "2025-12-23T02:01:21.423072", "MEAN_MOTION": 15.17920156, "ECCENTRICITY": 0.0002702, "INCLINATION": 97.4423, "RA_OF_ASC_NODE": 68.6941, "ARG_OF_PERICENTER": 215.8209, "MEAN_ANOMALY": 144.2844, "EPHEMERIS_TYPE": 0, "CLASSIFICATION_TYPE": "U", "NORAD_CAT_ID": 66712, "ELEMENT_SET_NO": 999, "REV_AT_EPOCH": 369, "BSTAR": 0.00053749, "MEAN_MOTION_DOT": 0.00010845, "MEAN_MOTION_DDOT": 0}, "tle": {"line1": "1 66712U 25276AY  25357.08427573  .00010845  00000+0  53749-3 0  9990", "line2": "2 66712  97.4423  68.6941 0002702 215.8209 144.2844 15.17920156  3697"}}, "geometry": {"type": "Point", "coordinates": [67.14443842735116, 14.527821354207157]}}, {"type": "Feature", "properties": {"norad_id": 66713, "name": "FLOCK 4H-10", "group": "last-30-days", "lat": -44.135981862003455, "lon": 76.33290797830685, "alt_km": 519.9251155582269, "timestamp": "2025-12-23T11:34:46.946075+00:00", "meta": {"OBJECT_NAME": "FLOCK 4H-10", "OBJECT_ID": "2025-276AZ", "EPOCH": "2025-12-22T19:56:53.544192", "MEAN_MOTION": 15.17278824, "ECCENTRICITY": 0.00036603, "INCLINATION": 97.4398, "RA_OF_ASC_NODE": 68.4091, "ARG_OF_PERICENTER": 246.9816, "MEAN_ANOMALY": 113.1032, "EPHEMERIS_TYPE": 0, "CLASSIFICATION_TYPE": "U", "NORAD_CAT_ID": 66713, "ELEMENT_SET_NO": 999, "REV_AT_EPOCH": 365, "BSTAR": 0.00077109887, "MEAN_MOTION_DOT": 0.00015314, "MEAN_MOTION_DDOT": 0}, "tle": {"line1": "1 66713U 25276AZ  25356.83117528  .00015314  00000+0  77110-3 0  9993", "line2": "2 66713  97.4398  68.4091 0003660 246.9816 113.1032 15.17278824  3654"}}, "geometry": {"type": "Point", "coordinates": [76.33290797830685, -44.135981862003455]}}, {"type": "Feature", "properties": {"norad_id": 66714, "name": "FLOCK 4H-11", "group": "last-30-days", "lat": -14.800102881718265, "lon": 71.05053871498365, "alt_km": 516.7515430667181, "timestamp": "2025-12-23T11:34:46.946084+00:00", "meta": {"OBJECT_NAME": "FLOCK 4H-11", "OBJECT_ID": "2025-276BA", "EPOCH": "2025-12-22T15:04:33.788640", "MEAN_MOTION": 15.17781228, "ECCENTRICITY": 0.00021529, "INCLINATION": 97.4416, "RA_OF_ASC_NODE": 68.2317, "ARG_OF_PERICENTER": 278.4399, "MEAN_ANOMALY": 81.6591, "EPHEMERIS_TYPE": 0, "CLASSIFICATION_TYPE": "U", "NORAD_CAT_ID": 66714, "ELEMENT_SET_NO": 999, "REV_AT_EPOCH": 362, "BSTAR": 0.00068051358, "MEAN_MOTION_DOT": 0.00013699, "MEAN_MOTION_DDOT": 0}, "tle": {"line1": "1 66714U 25276BA  25356.62816885  .00013699  00000+0  68051-3 0  9991", "line2": "2 66714  97.4416  68.2317 0002152 278.4399  81.6591 15.17781228  3629"}}, "geometry": {"type": "Point", "coordinates": [71.05053871498365, -14.800102881718265]}}, {"type": "Feature", "properties": {"norad_id": 66715, "name": "FLOCK 4H-12", "group": "last-30-days", "lat": 26.3966517905911, "lon": 65.35406231527452, "alt_km": 511.88648654283315, "timestamp": "2025-12-23T11:34:46.946092+00:00", "meta": {"OBJECT_NAME": "FLOCK 4H-12", "OBJECT_ID": "2025-276BB", "EPOCH": "2025-12-23T01:58:16.057056", "MEAN_MOTION": 15.18103386, "ECCENTRICITY": 0.0001835, "INCLINATION": 97.4393, "RA_OF_ASC_NODE": 68.6789, "ARG_OF_PERICENTER": 188.6503, "MEAN_ANOMALY": 171.4699, "EPHEMERIS_TYPE": 0, "CLASSIFICATION_TYPE": "U", "NORAD_CAT_ID": 66715, "ELEMENT_SET_NO": 999, "REV_AT_EPOCH": 400, "BSTAR": 0.00018818, "MEAN_MOTION_DOT": 3.77e-05, "MEAN_MOTION_DDOT": 0}, "tle": {"line1": "1 66715U 25276BB  25357.08213029  .00003770  00000+0  18818-3 0  9999", "line2": "2 66715  97.4393  68.6789 0001835 188.6503 171.4699 15.18103386  4001"}}, "geometry": {"type": "Point", "coordinates": [65.35406231527452, 26.3966517905911]}}, {"type": "Feature", "properties": {"norad_id": 66716, "name": "FLOCK 4H-13", "group": "last-30-days", "lat": 37.672885908820874, "lon": 63.29894256104453, "alt_km": 508.78424403918507, "timestamp": "2025-12-23T11:34:46.946104+00:00", "meta": {"OBJECT_NAME": "FLOCK 4H-13", "OBJECT_ID": "2025-276BC", "EPOCH": "2025-12-22T21:10:34.176000", "MEAN_MOTION": 15.18190815, "ECCENTRICITY": 0.0001662, "INCLINATION": 97.4432, "RA_OF_ASC_NODE": 68.5021, "ARG_OF_PERICENTER": 139.9033, "MEAN_ANOMALY": 220.2324, "EPHEMERIS_TYPE": 0, "CLASSIFICATION_TYPE": "U", "NORAD_CAT_ID": 66716, "ELEMENT_SET_NO": 999, "REV_AT_EPOCH": 366, "BSTAR": 0.00055448, "MEAN_MOTION_DOT": 0.00011278, "MEAN_MOTION_DDOT": 0}, "tle": {"line1": "1 66716U 25276BC  25356.88234000  .00011278  00000+0  55448-3 0  9991", "line2": "2 66716  97.4432  68.5021 0001662 139.9033 220.2324 15.18190815  3661"}}, "geometry": {"type": "Point", "coordinates": [63.29894256104453, 37.672885908820874]}}]}